#dP2024  2  2  0  0  0.00000000      96 __u+U IGS20 FIT  IAC
## 2299 432000.00000000   900.00000000 60342 0.0000000000000
+  131   C01C02C03C04C05C06C07C08C09C10C11C12C13C14C16C19C20
+        C21C22C23C24C25C26C27C28C29C30C32C33C34C35C36C37C38
+        C39C40C41C42C43C44C45C46C59C60E02E03E04E05E07E08E09
+        E10E11E12E13E14E15E18E19E21E24E25E26E27E30E31E33E34
+        E36G01G02G03G04G05G06G07G08G09G10G11G12G13G14G15G16
+        G17G18G19G20G21G22G23G24G25G26G27G28G29G30G31G32J02
+        J03J04J07R01R02R03R04R05R06R07R08R09R10R11R12R13R14
+        R15R16R17R18R19R20R21R22R23R24R25R26  0  0  0  0  0
++        17 17 17 17 16  9 10 10  9  9  9  9  0  9  9  7  7
++         7  7  7  7  7  7  7  7  7  7  7  7  7  7  7  7  8
++         8  8  8  7  8  7  7  7 18 17  4  5  4  4  4  5  4
++         4  4  4  5  4  4  5  4  4  4  4  5  4  5  4  4  4
++         4  4  4  4  4  4  3  4  4  4  4  4  3  4  4  4  4
++         4  4  4  4  4  4  4  4  3  4  6  4  4  4  3  4  8
++         8  9 17  7  6  6  6  6 15  6  6  6 15  6  6  8  6
++         6  6  6  6  8  8  6  6 15  6  8  9  0  0  0  0  0
%c M  cc GPS ccc cccc cccc cccc cccc ccccc ccccc ccccc ccccc
%c cc cc ccc ccc cccc cccc cccc cccc ccccc ccccc ccccc ccccc
%f  0.0000000  0.000000000  0.00000000000  0.000000000000000
%f  0.0000000  0.000000000  0.00000000000  0.000000000000000
%i    0    0    0    0      0      0      0      0         0
%i    0    0    0    0      0      0      0      0         0
/* INFORMATION & ANALYSIS CENTER (IAC)            RAPID DATA
/* S/V CLOCKS ARE ALIGNED TO GNSS TIME                      
/* G:C1WC2W R:C1PC2P E:C1XC5X C:C2IC6I J:C1CC2S             
/* PCV:IGS20_2290 OL/AL:FES2004  NONE     YN ORB:CoN CLK:CoN
*  2024 02 02 23  0  0.00000000
PC01 -34325.425090  24457.509967   -190.361201    883.591369
PC02   4371.424592  41954.946056   1419.859120    394.520223
PC03 -14719.753690  39553.537352    398.361721    -59.054981
PC04 -39619.973583  14334.540501   -583.930019    888.169938
PC05  21944.827089  35996.853072   1480.928938   -659.320567
PC06  -1632.919422  31570.537453  28079.933425     85.756007
PC07 -15247.816398  28425.026854 -27144.991457   -738.805861
PC08 -13630.362439  39689.777789   2530.449678     67.389499
PC09   5699.940011  36140.156398  21915.942738   -437.454998
PC10  -7955.368546  28691.187021 -29669.765141    100.873585
PC11   8919.464852  20363.238507 -16793.170710    390.489289
PC12 -10152.668374  11702.787150 -23168.013943    779.587690
PC13      0.000000      0.000000      0.000000 999999.999999
PC14  -1187.812658  17175.242362  21990.424916    104.178893
PC16  -2707.538121  30456.591850  29436.407860   -317.218176
PC19  -9198.161440 -12807.697499 -22997.819632   -930.710872
PC20   9598.679131 -18513.350251 -18516.130178   -125.322631
PC21 -24345.597910  13465.900009   2342.953941   -962.941210
PC22 -23833.714910    561.395203 -14523.241123   -124.179360
PC23  15312.490296   7988.173830 -21924.500343   -784.166219
PC24  -5847.444408  26732.000095   5377.509502    848.524661
PC25   7565.852848  23972.223727 -12109.831731    316.837497
PC26 -14476.516532  14272.219668  19080.524121   -243.665479
PC27  17808.171436  -5352.220454  20794.398667    265.677023
PC28  24647.951401   8863.456830   9638.530114    201.892774
PC29 -17582.737939 -19321.560396   9800.286987    236.588840
PC30   1134.320303 -17399.059667  21776.350680    -20.889658
PC32  24272.735318 -13577.301744  -2199.595641   -561.984169
PC33   9159.182367  12864.304327  23013.559732   -946.147404
PC34    501.509461  18093.744327 -21256.363033    360.868990
PC35 -24968.890249  -7938.519626  -9558.612708    442.704369
PC36  -6655.794638 -24485.935838  11641.747093    -29.135575
PC37  14941.431688 -13493.182214 -19334.994660   -934.070127
PC38 -17053.647922  38034.313736  -5758.570186    134.397037
PC39  -7695.697195  25696.572757  32633.493272     -6.948368
PC40 -22207.238905  21994.509911 -28422.049378    -54.797105
PC41  23438.576351     56.621742  15194.173245   -885.934330
PC42 -11163.032677  18671.143266  17540.078301   -458.363559
PC43  16839.362132  19603.197324 -10572.573061     58.900635
PC44 -17759.003994   6051.378116 -20659.445963    372.811447
PC45 -15229.186263  -7740.675238  22058.898879    -67.549530
PC46   5313.536857 -27044.381127  -4529.908788   -120.697363
PC59 -32328.871949  27073.062376    846.050035     -0.419040
PC60   7323.501952  41523.512134    184.707612     -0.287329
PE02  21883.822878  -7181.691829 -18617.376177    100.217582
PE03  29209.668721    506.360340  -4744.409310    -91.230057
PE04 -17954.479694  11932.793135  20289.238164   -318.257863
PE05  23286.802352  12481.570751  13350.938827   4716.340595
PE07  -3232.742099 -17233.490268 -23843.516576   -101.727276
PE08  18559.312510 -11481.959394 -19993.942603   -217.807311
PE09   3097.687489  17090.396337  23968.767895   -322.142273
PE10  -1592.673769  24307.980792 -16815.922670   -598.968557
PE11   6130.457746  27931.093968  -7686.056296   3265.248177
PE12  -8388.176865  17534.438260 -22327.840187   -889.734565
PE13  -5682.461667 -27813.048570   8372.666664    -20.073334
PE14 -23086.855529  12123.944975 -18893.468930     28.383680
PE15   8693.019066 -16999.011306  22626.899432    -83.645725
PE18   9433.092777 -13507.370989  17815.274541    282.508066
PE19 -29401.389487  -2197.010883   2604.432466   -690.191375
PE21 -12283.083718 -11553.195088  24319.160831   -577.050210
PE24  -5232.087790  24492.521861 -15777.659168   -576.786466
PE25  12004.647804  11895.141434 -24304.057229      0.354693
PE26 -16770.779856 -21727.878516 -11066.136052    357.519211
PE27   4874.081063 -24386.386066  16059.520166   -265.020758
PE30  19155.408131 -22508.919236  -1816.462663   -875.473528
PE31 -18941.810883  22685.576970   1560.431467    -15.137543
PE33 -17871.069167  -4226.815043 -23206.518265      6.978420
PE34  17763.427171   3564.264134  23408.931106    -92.481086
PE36  16511.086228  22197.901628  10554.318441   -180.548025
PG01  15228.633939    121.329924  21473.553188    168.082349
PG02  18226.732192   6961.503742  18635.537883   -491.431467
PG03  18941.585395  -5738.605252  17514.310761    168.065205
PG04  26292.080736   1239.325959  -4046.985493    282.008106
PG05 -13936.204454  -6229.085656 -21911.797149   -160.336739
PG06  -5072.734138 -24963.352307   7387.450299    421.955275
PG07   9623.200629 -13789.090442 -19958.617757    -52.632509
PG08  25696.663535   5785.999734  -4976.197136   -165.180598
PG09  20255.706215  -8639.957484 -14975.444945     79.286661
PG10  -8809.669959  22884.841901   9982.894849    -71.779718
PG11 -11888.160387 -23380.668220  -4314.166702   -562.435322
PG12 -19453.348451   4136.450052  17284.735202   -474.155657
PG13 -19732.104219 -13624.208215 -11862.230361    621.896859
PG14  12198.493387 -22648.749091   6227.654449    315.473302
PG15 -25949.291466  -3389.572775  -5627.915480    123.683769
PG16   8784.114637  12913.019549 -21768.574192   -371.042778
PG17   7945.341737 -13690.659365  21776.032409    718.158696
PG18  -8605.331572  15013.907708 -20079.365632   -546.868339
PG19  -3000.864036 -15569.991545  21177.075382    435.264291
PG20  -5293.843329 -18471.937091 -18345.421091    388.964798
PG21  18799.058621  12472.067412  15244.348545    136.298142
PG22   6959.325477 -22051.981116  13753.190346     37.640366
PG23 -16494.996909  20539.606763  -2435.408884    148.052151
PG24 -18715.429643  -9214.887691  16261.259875   -425.165120
PG25 -19346.285609  14987.532576   9635.033181    487.361877
PG26   1486.390936  20640.680996 -16588.295153    194.220765
PG27  17660.630562  12916.058886 -15627.158196     -0.526810
PG28   3825.007686  24363.545677   9843.328503   -118.319022
PG29 -21847.754646   5523.424517 -14185.502670   -607.691132
PG30   1860.792999 -22223.934536 -14095.278874   -437.581302
PG31   9588.477838  24523.127528    368.885957   -227.625720
PG32  -3177.809667  15005.489125  21872.277592   -609.369486
PJ02 -35557.595149  22737.908806   5837.679430     -1.653800
PJ03 -20574.573674  21842.962652 -24973.044721     -0.213362
PJ04 -25220.350035  33051.228021  13892.440771     78.975168
PJ07 -25377.444776  33670.555192     40.343333     -0.005445
PR01  16917.836671 -12377.957831 -14523.198942     76.155000
PR02   -114.717002 -11039.941872 -22951.368839    -22.444006
PR03 -17508.474402  -3975.958683 -18040.492252     93.785546
PR04 -24780.300927   4947.076465  -3385.173644    221.759343
PR05 -18787.458618  11200.572207  13115.545170    126.306145
PR06   2009.726732  10833.766508  22997.654019   -149.022387
PR07  18230.059185   3559.149568  17553.768186     74.969144
PR08  24788.842197  -5171.002896   3292.806176    -74.265289
PR09  -1157.111133  24064.513189  -8487.183168    167.844605
PR10   6433.176369  14373.993177 -20054.964549   -117.738101
PR11  11936.740236  -4633.462386 -22053.884690     35.609875
PR12  10036.658357 -21574.118187  -9199.079250     36.317344
PR13   2841.457242 -24561.419181   6263.815325    -43.957543
PR14  -7416.456242 -12506.234850  20957.900845     26.002311
PR15 -12260.588804   6109.433645  21529.430309     82.530746
PR16  -9964.365105  21480.843751   9527.235505     22.975043
PR17 -18913.090110 -16846.344266  -3164.354569     57.946080
PR18 -17220.425150  -6156.216940 -17735.989821    125.396404
PR19  -8341.217926   6251.109905 -23276.617373   -264.374276
PR20   8635.737661  19035.222892 -14641.575270   -107.682809
PR21  18827.561375  16828.985762   3532.056320    -73.903052
PR22  16912.755709   5552.144377  18307.226550    106.205831
PR23   5356.411708  -9370.563889  23107.645369   -110.757483
PR24  -9579.620304 -18999.755388  14095.866506    -42.364321
PR25  18248.127823  17505.071618   3301.417467     79.281973
PR26  24681.615829  -4896.026987   4142.799199   -200.300322
EOF
